{"type": "FeatureCollection", "features": [ {"type": "Feature", "properties": {"norad_id": 41175, "name": "GSAT0208 (GALILEO 11)", "group": "galileo", "lat": -52.511920472783544, "lon": -10.999083521025401, "alt_km": 23229.28700692407, "timestamp": "2025-12-15T11:38:37.416495+00:00", "meta": {"OBJECT_NAME": "GSAT0208 (GALILEO 11)", "OBJECT_ID": "2015-079B", "EPOCH": "2025-12-12T17:24:26.771040", "MEAN_MOTION": 1.70474307, "ECCENTRICITY": 0.00018806, "INCLINATION": 55.7111, "RA_OF_ASC_NODE": 106.3784, "ARG_OF_PERICENTER": 358.3144, "MEAN_ANOMALY": 1.6545, "EPHEMERIS_TYPE": 0, "CLASSIFICATION_TYPE": "U", "NORAD_CAT_ID": 41175, "ELEMENT_SET_NO": 999, "REV_AT_EPOCH": 6201, "BSTAR": 0, "MEAN_MOTION_DOT": 4e-08, "MEAN_MOTION_DDOT": 0}, "tle": {"line1": "1 41175U 15079B   25346.72530985  .00000004  00000+0  00000+0 0  9991", "line2": "2 41175  55.7111 106.3784 0001880 358.3144   1.6545  1.70474307 62017"}}, "geometry": {"type": "Point", "coordinates": [-10.999083521025401, -52.511920472783544]}}, {"type": "Feature", "properties": {"norad_id": 41549, "name": "GSAT0211 (GALILEO 14)", "group": "galileo", "lat": 1.8887534709591038, "lon": 45.44044190473678, "alt_km": 23233.706810472566, "timestamp": "2025-12-15T11:38:37.416525+00:00", "meta": {"OBJECT_NAME": "GSAT0211 (GALILEO 14)", "OBJECT_ID": "2016-030A", "EPOCH": "2025-12-14T00:32:28.498848", "MEAN_MOTION": 1.70473201, "ECCENTRICITY": 0.000407, "INCLINATION": 55.1518, "RA_OF_ASC_NODE": 226.7881, "ARG_OF_PERICENTER": 16.5595, "MEAN_ANOMALY": 343.5367, "EPHEMERIS_TYPE": 0, "CLASSIFICATION_TYPE": "U", "NORAD_CAT_ID": 41549, "ELEMENT_SET_NO": 999, "REV_AT_EPOCH": 5951, "BSTAR": 0, "MEAN_MOTION_DOT": 2.8e-07, "MEAN_MOTION_DDOT": 0}, "tle": {"line1": "1 41549U 16030A   25348.02255207  .00000028  00000+0  00000+0 0  9996", "line2": "2 41549  55.1518 226.7881 0004070  16.5595 343.5367  1.70473201 59512"}}, "geometry": {"type": "Point", "coordinates": [45.44044190473678, 1.8887534709591038]}}, {"type": "Feature", "properties": {"norad_id": 41550, "name": "GSAT0210 (GALILEO 13)", "group": "galileo", "lat": 16.024138347803536, "lon": -121.71468851603599, "alt_km": 23222.630631032196, "timestamp": "2025-12-15T11:38:37.416540+00:00", "meta": {"OBJECT_NAME": "GSAT0210 (GALILEO 13)", "OBJECT_ID": "2016-030B", "EPOCH": "2025-12-14T06:43:07.791456", "MEAN_MOTION": 1.70473679, "ECCENTRICITY": 9.538e-05, "INCLINATION": 55.1512, "RA_OF_ASC_NODE": 226.7791, "ARG_OF_PERICENTER": 236.3511, "MEAN_ANOMALY": 123.7237, "EPHEMERIS_TYPE": 0, "CLASSIFICATION_TYPE": "U", "NORAD_CAT_ID": 41550, "ELEMENT_SET_NO": 999, "REV_AT_EPOCH": 5951, "BSTAR": 0, "MEAN_MOTION_DOT": 3e-07, "MEAN_MOTION_DDOT": 0}, "tle": {"line1": "1 41550U 16030B   25348.27995129  .00000030  00000+0  00000+0 0  9992", "line2": "2 41550  55.1512 226.7791 0000953 236.3511 123.7237  1.70473679 59517"}}, "geometry": {"type": "Point", "coordinates": [-121.71468851603599, 16.024138347803536]}}, {"type": "Feature", "properties": {"norad_id": 41859, "name": "GSAT0207 (GALILEO 15)", "group": "galileo", "lat": -23.43967303183602, "lon": -56.430149696330666, "alt_km": 23227.86827171639, "timestamp": "2025-12-15T11:38:37.416551+00:00", "meta": {"OBJECT_NAME": "GSAT0207 (GALILEO 15)", "OBJECT_ID": "2016-069A", "EPOCH": "2025-12-13T09:14:27.730752", "MEAN_MOTION": 1.70474447, "ECCENTRICITY": 0.00022423, "INCLINATION": 55.3826, "RA_OF_ASC_NODE": 106.2323, "ARG_OF_PERICENTER": 321.9482, "MEAN_ANOMALY": 38.0041, "EPHEMERIS_TYPE": 0, "CLASSIFICATION_TYPE": "U", "NORAD_CAT_ID": 41859, "ELEMENT_SET_NO": 999, "REV_AT_EPOCH": 5623, "BSTAR": 0, "MEAN_MOTION_DOT": 0, "MEAN_MOTION_DDOT": 0}, "tle": {"line1": "1 41859U 16069A   25347.38504318  .00000000  00000+0  00000+0 0  9990", "line2": "2 41859  55.3826 106.2323 0002242 321.9482  38.0041  1.70474447 56234"}}, "geometry": {"type": "Point", "coordinates": [-56.430149696330666, -23.43967303183602]}}, {"type": "Feature", "properties": {"norad_id": 41860, "name": "GSAT0212 (GALILEO 16)", "group": "galileo", "lat": -46.20893751152152, "lon": 60.11065577816541, "alt_km": 23227.267025592624, "timestamp": "2025-12-15T11:38:37.416563+00:00", "meta": {"OBJECT_NAME": "GSAT0212 (GALILEO 16)", "OBJECT_ID": "2016-069B", "EPOCH": "2025-12-11T11:29:42.448992", "MEAN_MOTION": 1.70474595, "ECCENTRICITY": 0.00021636, "INCLINATION": 55.3791, "RA_OF_ASC_NODE": 106.2805, "ARG_OF_PERICENTER": 27.6057, "MEAN_ANOMALY": 332.3763, "EPHEMERIS_TYPE": 0, "CLASSIFICATION_TYPE": "U", "NORAD_CAT_ID": 41860, "ELEMENT_SET_NO": 999, "REV_AT_EPOCH": 5645, "BSTAR": 0, "MEAN_MOTION_DOT": 8e-08, "MEAN_MOTION_DDOT": 0}, "tle": {"line1": "1 41860U 16069B   25345.47896353  .00000008  00000+0  00000+0 0  9991", "line2": "2 41860  55.3791 106.2805 0002163  27.6057 332.3763  1.70474595 56451"}}, "geometry": {"type": "Point", "coordinates": [60.11065577816541, -46.20893751152152]}}, {"type": "Feature", "properties": {"norad_id": 41861, "name": "GSAT0213 (GALILEO 17)", "group": "galileo", "lat": 51.96680832132082, "lon": 168.0737517484227, "alt_km": 23222.192667096086, "timestamp": "2025-12-15T11:38:37.416574+00:00", "meta": {"OBJECT_NAME": "GSAT0213 (GALILEO 17)", "OBJECT_ID": "2016-069C", "EPOCH": "2025-12-14T04:37:41.330208", "MEAN_MOTION": 1.70474935, "ECCENTRICITY": 0.00024236, "INCLINATION": 55.3829, "RA_OF_ASC_NODE": 106.2129, "ARG_OF_PERICENTER": 283.222, "MEAN_ANOMALY": 76.7169, "EPHEMERIS_TYPE": 0, "CLASSIFICATION_TYPE": "U", "NORAD_CAT_ID": 41861, "ELEMENT_SET_NO": 999, "REV_AT_EPOCH": 5636, "BSTAR": 0, "MEAN_MOTION_DOT": -4e-08, "MEAN_MOTION_DDOT": 0}, "tle": {"line1": "1 41861U 16069C   25348.19283947 -.00000004  00000+0  00000+0 0  9990", "line2": "2 41861  55.3829 106.2129 0002423 283.2220  76.7169  1.70474935 56361"}}, "geometry": {"type": "Point", "coordinates": [168.0737517484227, 51.96680832132082]}}, {"type": "Feature", "properties": {"norad_id": 41862, "name": "GSAT0214 (GALILEO 18)", "group": "galileo", "lat": -13.498693223174598, "lon": 96.62076679294945, "alt_km": 23221.531607997014, "timestamp": "2025-12-15T11:38:37.416585+00:00", "meta": {"OBJECT_NAME": "GSAT0214 (GALILEO 18)", "OBJECT_ID": "2016-069D", "EPOCH": "2025-12-14T22:12:36.299232", "MEAN_MOTION": 1.70474813, "ECCENTRICITY": 0.00014239, "INCLINATION": 55.3815, "RA_OF_ASC_NODE": 106.1855, "ARG_OF_PERICENTER": 290.4821, "MEAN_ANOMALY": 69.4663, "EPHEMERIS_TYPE": 0, "CLASSIFICATION_TYPE": "U", "NORAD_CAT_ID": 41862, "ELEMENT_SET_NO": 999, "REV_AT_EPOCH": 5650, "BSTAR": 0, "MEAN_MOTION_DOT": -6e-08, "MEAN_MOTION_DDOT": 0}, "tle": {"line1": "1 41862U 16069D   25348.92542013 -.00000006  00000+0  00000+0 0  9996", "line2": "2 41862  55.3815 106.1855 0001423 290.4821  69.4663  1.70474813 56507"}}, "geometry": {"type": "Point", "coordinates": [96.62076679294945, -13.498693223174598]}}, {"type": "Feature", "properties": {"norad_id": 43055, "name": "GSAT0215 (GALILEO 19)", "group": "galileo", "lat": 33.79875069919095, "lon": -105.63405798829359, "alt_km": 23215.75689668165, "timestamp": "2025-12-15T11:38:37.416596+00:00", "meta": {"OBJECT_NAME": "GSAT0215 (GALILEO 19)", "OBJECT_ID": "2017-079A", "EPOCH": "2025-12-11T21:30:24.060384", "MEAN_MOTION": 1.704739, "ECCENTRICITY": 0.00012658, "INCLINATION": 55.1303, "RA_OF_ASC_NODE": 226.661, "ARG_OF_PERICENTER": 350.6161, "MEAN_ANOMALY": 9.46, "EPHEMERIS_TYPE": 0, "CLASSIFICATION_TYPE": "U", "NORAD_CAT_ID": 43055, "ELEMENT_SET_NO": 999, "REV_AT_EPOCH": 4979, "BSTAR": 0, "MEAN_MOTION_DOT": 1.3e-07, "MEAN_MOTION_DDOT": 0}, "tle": {"line1": "1 43055U 17079A   25345.89611181  .00000013  00000+0  00000+0 0  9997", "line2": "2 43055  55.1303 226.6610 0001265 350.6161   9.4600  1.70473900 49794"}}, "geometry": {"type": "Point", "coordinates": [-105.63405798829359, 33.79875069919095]}}, {"type": "Feature", "properties": {"norad_id": 43056, "name": "GSAT0216 (GALILEO 20)", "group": "galileo", "lat": -34.67797774539208, "lon": 75.38341965623526, "alt_km": 23227.993753673956, "timestamp": "2025-12-15T11:38:37.416607+00:00", "meta": {"OBJECT_NAME": "GSAT0216 (GALILEO 20)", "OBJECT_ID": "2017-079B", "EPOCH": "2025-12-13T08:39:13.176288", "MEAN_MOTION": 1.70474029, "ECCENTRICITY": 0.00023036, "INCLINATION": 55.1302, "RA_OF_ASC_NODE": 226.6206, "ARG_OF_PERICENTER": 326.735, "MEAN_ANOMALY": 33.3311, "EPHEMERIS_TYPE": 0, "CLASSIFICATION_TYPE": "U", "NORAD_CAT_ID": 43056, "ELEMENT_SET_NO": 999, "REV_AT_EPOCH": 4983, "BSTAR": 0, "MEAN_MOTION_DOT": 2.3e-07, "MEAN_MOTION_DDOT": 0}, "tle": {"line1": "1 43056U 17079B   25347.36056917  .00000023  00000+0  00000+0 0  9993", "line2": "2 43056  55.1302 226.6206 0002303 326.7350  33.3311  1.70474029 49836"}}, "geometry": {"type": "Point", "coordinates": [75.38341965623526, -34.67797774539208]}}, {"type": "Feature", "properties": {"norad_id": 43057, "name": "GSAT0217 (GALILEO 21)", "group": "galileo", "lat": 55.108163174735424, "lon": -46.06483448924553, "alt_km": 23217.57364230856, "timestamp": "2025-12-15T11:38:37.416618+00:00", "meta": {"OBJECT_NAME": "GSAT0217 (GALILEO 21)", "OBJECT_ID": "2017-079C", "EPOCH": "2025-12-13T13:57:02.142720", "MEAN_MOTION": 1.70474015, "ECCENTRICITY": 0.00027963, "INCLINATION": 55.1281, "RA_OF_ASC_NODE": 226.6125, "ARG_OF_PERICENTER": 346.0332, "MEAN_ANOMALY": 14.0404, "EPHEMERIS_TYPE": 0, "CLASSIFICATION_TYPE": "U", "NORAD_CAT_ID": 43057, "ELEMENT_SET_NO": 999, "REV_AT_EPOCH": 4982, "BSTAR": 0, "MEAN_MOTION_DOT": 2.5e-07, "MEAN_MOTION_DDOT": 0}, "tle": {"line1": "1 43057U 17079C   25347.58127480  .00000025  00000+0  00000+0 0  9994", "line2": "2 43057  55.1281 226.6125 0002796 346.0332  14.0404  1.70474015 49827"}}, "geometry": {"type": "Point", "coordinates": [-46.06483448924553, 55.108163174735424]}}]}